GSAT0213 (GALILEO 17)   
1 41861U 16069C   26179.11118849 -.00000034  00000+0  00000+0 0  9996
2 41861  55.5047 100.7870 0004537 315.9585  43.9839  1.70474290 59707
GSAT0214 (GALILEO 18)   
1 41862U 16069D   26179.25744257 -.00000033  00000+0  00000+0 0  9999
2 41862  55.5035 100.7756 0003548 328.2164  31.7414  1.70473610 59832
GSAT0215 (GALILEO 19)   
1 43055U 17079A   26179.16063341  .00000069  00000+0  00000+0 0  9993
2 43055  55.0711 221.2046 0003100 263.9664  96.0952  1.70474711 53174
GSAT0216 (GALILEO 20)   
1 43056U 17079B   26177.10544658  .00000062  00000+0  00000+0 0  9994
2 43056  55.0717 221.2611 0004659 276.6161  83.4222  1.70474721 53151
GSAT0217 (GALILEO 21)   
1 43057U 17079C   26177.32624419  .00000063  00000+0  00000+0 0  9994
2 43057  55.0685 221.2528 0003945 287.8828  72.1663  1.70474719 53144
GSAT0218 (GALILEO 22)   
1 43058U 17079D   26178.71948962  .00000068  00000+0  00000+0 0  9996
2 43058  55.0695 221.2120 0006163 274.4572  85.5687  1.70474400 53193
GSAT0221 (GALILEO 25)   
1 43564U 18060A   26178.03689547 -.00000094  00000+0  00000+0 0  9995
2 43564  57.1661 341.5145 0002520 298.2100  61.7583  1.70476269 49335
GSAT0222 (GALILEO 26)   
1 43565U 18060B   26179.42973081 -.00000091  00000+0  00000+0 0  9996
2 43565  57.1685 341.4807 0002257 240.6256 119.3439  1.70476044 49405
GSAT0219 (GALILEO 23)   
1 43566U 18060C   26179.06402313 -.00000092  00000+0  00000+0 0  9993
2 43566  57.1687 341.4920 0001786 313.2076  46.7699  1.70476307 49376
GSAT0220 (GALILEO 24)   
1 43567U 18060D   26178.69843960 -.00000093  00000+0  00000+0 0  9990
2 43567  57.1676 341.5017 0001921 305.3524  54.6226  1.70476279 49354
GSAT0223 (GALILEO 27)   
1 49809U 21116A   26178.53905481 -.00000093  00000+0  00000+0 0  9991
2 49809  57.1576 341.3951 0001693 183.6278 169.3776  1.70476510 28351
GSAT0224 (GALILEO 28)   
1 49810U 21116B   26178.36614440 -.00000094  00000+0  00000+0 0  9997
2 49810  57.1577 341.3987 0001418 161.6476 197.8652  1.70476529 28375
GSAT0225 (GALILEO 29)   
1 59598U 24079A   26178.08921058 -.00000038  00000+0  00000+0 0  9995
2 59598  55.1252 100.8034 0001602 296.6342 246.1420  1.70474177 13488
GSAT0227 (GALILEO 30)   
1 59600U 24079C   26179.14798577 -.00000034  00000+0  00000+0 0  9991
2 59600  55.1211 100.7723 0002648  63.8274 296.1782  1.70473976 13550
