{"fetchedAt":"2026-06-29T18:07:57.252Z","satellites":[{"id":"41861","name":"GSAT0213 (GALILEO 17)","constellationId":"galileo","omm":{"OBJECT_NAME":"GSAT0213 (GALILEO 17)","OBJECT_ID":"2016-069C","EPOCH":"2026-06-28T02:40:06.685536","MEAN_MOTION":1.7047429,"ECCENTRICITY":0.00045371,"INCLINATION":55.5047,"RA_OF_ASC_NODE":100.787,"ARG_OF_PERICENTER":315.9585,"MEAN_ANOMALY":43.9839,"EPHEMERIS_TYPE":0,"CLASSIFICATION_TYPE":"U","NORAD_CAT_ID":41861,"ELEMENT_SET_NO":999,"REV_AT_EPOCH":5970,"BSTAR":0,"MEAN_MOTION_DOT":-3.4e-7,"MEAN_MOTION_DDOT":0}},{"id":"41862","name":"GSAT0214 (GALILEO 18)","constellationId":"galileo","omm":{"OBJECT_NAME":"GSAT0214 (GALILEO 18)","OBJECT_ID":"2016-069D","EPOCH":"2026-06-28T06:10:43.038048","MEAN_MOTION":1.7047361,"ECCENTRICITY":0.00035484,"INCLINATION":55.5035,"RA_OF_ASC_NODE":100.7756,"ARG_OF_PERICENTER":328.2164,"MEAN_ANOMALY":31.7414,"EPHEMERIS_TYPE":0,"CLASSIFICATION_TYPE":"U","NORAD_CAT_ID":41862,"ELEMENT_SET_NO":999,"REV_AT_EPOCH":5983,"BSTAR":0,"MEAN_MOTION_DOT":-3.3e-7,"MEAN_MOTION_DDOT":0}},{"id":"43055","name":"GSAT0215 (GALILEO 19)","constellationId":"galileo","omm":{"OBJECT_NAME":"GSAT0215 (GALILEO 19)","OBJECT_ID":"2017-079A","EPOCH":"2026-06-28T03:51:18.726624","MEAN_MOTION":1.70474711,"ECCENTRICITY":0.00031009,"INCLINATION":55.0711,"RA_OF_ASC_NODE":221.2046,"ARG_OF_PERICENTER":263.9664,"MEAN_ANOMALY":96.0952,"EPHEMERIS_TYPE":0,"CLASSIFICATION_TYPE":"U","NORAD_CAT_ID":43055,"ELEMENT_SET_NO":999,"REV_AT_EPOCH":5317,"BSTAR":0,"MEAN_MOTION_DOT":6.9e-7,"MEAN_MOTION_DDOT":0}},{"id":"43056","name":"GSAT0216 (GALILEO 20)","constellationId":"galileo","omm":{"OBJECT_NAME":"GSAT0216 (GALILEO 20)","OBJECT_ID":"2017-079B","EPOCH":"2026-06-26T02:31:50.584512","MEAN_MOTION":1.70474721,"ECCENTRICITY":0.00046591,"INCLINATION":55.0717,"RA_OF_ASC_NODE":221.2611,"ARG_OF_PERICENTER":276.6161,"MEAN_ANOMALY":83.4222,"EPHEMERIS_TYPE":0,"CLASSIFICATION_TYPE":"U","NORAD_CAT_ID":43056,"ELEMENT_SET_NO":999,"REV_AT_EPOCH":5315,"BSTAR":0,"MEAN_MOTION_DOT":6.2e-7,"MEAN_MOTION_DDOT":0}},{"id":"43057","name":"GSAT0217 (GALILEO 21)","constellationId":"galileo","omm":{"OBJECT_NAME":"GSAT0217 (GALILEO 21)","OBJECT_ID":"2017-079C","EPOCH":"2026-06-26T07:49:47.498016","MEAN_MOTION":1.70474719,"ECCENTRICITY":0.0003945,"INCLINATION":55.0685,"RA_OF_ASC_NODE":221.2528,"ARG_OF_PERICENTER":287.8828,"MEAN_ANOMALY":72.1663,"EPHEMERIS_TYPE":0,"CLASSIFICATION_TYPE":"U","NORAD_CAT_ID":43057,"ELEMENT_SET_NO":999,"REV_AT_EPOCH":5314,"BSTAR":0,"MEAN_MOTION_DOT":6.3e-7,"MEAN_MOTION_DDOT":0}},{"id":"43058","name":"GSAT0218 (GALILEO 22)","constellationId":"galileo","omm":{"OBJECT_NAME":"GSAT0218 (GALILEO 22)","OBJECT_ID":"2017-079D","EPOCH":"2026-06-27T17:16:03.903168","MEAN_MOTION":1.704744,"ECCENTRICITY":0.00061633,"INCLINATION":55.0695,"RA_OF_ASC_NODE":221.212,"ARG_OF_PERICENTER":274.4572,"MEAN_ANOMALY":85.5687,"EPHEMERIS_TYPE":0,"CLASSIFICATION_TYPE":"U","NORAD_CAT_ID":43058,"ELEMENT_SET_NO":999,"REV_AT_EPOCH":5319,"BSTAR":0,"MEAN_MOTION_DOT":6.8e-7,"MEAN_MOTION_DDOT":0}},{"id":"43564","name":"GSAT0221 (GALILEO 25)","constellationId":"galileo","omm":{"OBJECT_NAME":"GSAT0221 (GALILEO 25)","OBJECT_ID":"2018-060A","EPOCH":"2026-06-27T00:53:07.768608","MEAN_MOTION":1.70476269,"ECCENTRICITY":0.00025202,"INCLINATION":57.1661,"RA_OF_ASC_NODE":341.5145,"ARG_OF_PERICENTER":298.21,"MEAN_ANOMALY":61.7583,"EPHEMERIS_TYPE":0,"CLASSIFICATION_TYPE":"U","NORAD_CAT_ID":43564,"ELEMENT_SET_NO":999,"REV_AT_EPOCH":4933,"BSTAR":0,"MEAN_MOTION_DOT":-9.4e-7,"MEAN_MOTION_DDOT":0}},{"id":"43565","name":"GSAT0222 (GALILEO 26)","constellationId":"galileo","omm":{"OBJECT_NAME":"GSAT0222 (GALILEO 26)","OBJECT_ID":"2018-060B","EPOCH":"2026-06-28T10:18:48.741984","MEAN_MOTION":1.70476044,"ECCENTRICITY":0.00022577,"INCLINATION":57.1685,"RA_OF_ASC_NODE":341.4807,"ARG_OF_PERICENTER":240.6256,"MEAN_ANOMALY":119.3439,"EPHEMERIS_TYPE":0,"CLASSIFICATION_TYPE":"U","NORAD_CAT_ID":43565,"ELEMENT_SET_NO":999,"REV_AT_EPOCH":4940,"BSTAR":0,"MEAN_MOTION_DOT":-9.1e-7,"MEAN_MOTION_DDOT":0}},{"id":"43566","name":"GSAT0219 (GALILEO 23)","constellationId":"galileo","omm":{"OBJECT_NAME":"GSAT0219 (GALILEO 23)","OBJECT_ID":"2018-060C","EPOCH":"2026-06-28T01:32:11.598432","MEAN_MOTION":1.70476307,"ECCENTRICITY":0.00017868,"INCLINATION":57.1687,"RA_OF_ASC_NODE":341.492,"ARG_OF_PERICENTER":313.2076,"MEAN_ANOMALY":46.7699,"EPHEMERIS_TYPE":0,"CLASSIFICATION_TYPE":"U","NORAD_CAT_ID":43566,"ELEMENT_SET_NO":999,"REV_AT_EPOCH":4937,"BSTAR":0,"MEAN_MOTION_DOT":-9.2e-7,"MEAN_MOTION_DDOT":0}},{"id":"43567","name":"GSAT0220 (GALILEO 24)","constellationId":"galileo","omm":{"OBJECT_NAME":"GSAT0220 (GALILEO 24)","OBJECT_ID":"2018-060D","EPOCH":"2026-06-27T16:45:45.181440","MEAN_MOTION":1.70476279,"ECCENTRICITY":0.00019211,"INCLINATION":57.1676,"RA_OF_ASC_NODE":341.5017,"ARG_OF_PERICENTER":305.3524,"MEAN_ANOMALY":54.6226,"EPHEMERIS_TYPE":0,"CLASSIFICATION_TYPE":"U","NORAD_CAT_ID":43567,"ELEMENT_SET_NO":999,"REV_AT_EPOCH":4935,"BSTAR":0,"MEAN_MOTION_DOT":-9.3e-7,"MEAN_MOTION_DDOT":0}},{"id":"49809","name":"GSAT0223 (GALILEO 27)","constellationId":"galileo","omm":{"OBJECT_NAME":"GSAT0223 (GALILEO 27)","OBJECT_ID":"2021-116A","EPOCH":"2026-06-27T12:56:14.335584","MEAN_MOTION":1.7047651,"ECCENTRICITY":0.00016938,"INCLINATION":57.1576,"RA_OF_ASC_NODE":341.3951,"ARG_OF_PERICENTER":183.6278,"MEAN_ANOMALY":169.3776,"EPHEMERIS_TYPE":0,"CLASSIFICATION_TYPE":"U","NORAD_CAT_ID":49809,"ELEMENT_SET_NO":999,"REV_AT_EPOCH":2835,"BSTAR":0,"MEAN_MOTION_DOT":-9.3e-7,"MEAN_MOTION_DDOT":0}},{"id":"49810","name":"GSAT0224 (GALILEO 28)","constellationId":"galileo","omm":{"OBJECT_NAME":"GSAT0224 (GALILEO 28)","OBJECT_ID":"2021-116B","EPOCH":"2026-06-27T08:47:14.876160","MEAN_MOTION":1.70476529,"ECCENTRICITY":0.00014188,"INCLINATION":57.1577,"RA_OF_ASC_NODE":341.3987,"ARG_OF_PERICENTER":161.6476,"MEAN_ANOMALY":197.8652,"EPHEMERIS_TYPE":0,"CLASSIFICATION_TYPE":"U","NORAD_CAT_ID":49810,"ELEMENT_SET_NO":999,"REV_AT_EPOCH":2837,"BSTAR":0,"MEAN_MOTION_DOT":-9.4e-7,"MEAN_MOTION_DDOT":0}},{"id":"59598","name":"GSAT0225 (GALILEO 29)","constellationId":"galileo","omm":{"OBJECT_NAME":"GSAT0225 (GALILEO 29)","OBJECT_ID":"2024-079A","EPOCH":"2026-06-27T02:08:27.794112","MEAN_MOTION":1.70474177,"ECCENTRICITY":0.00016021,"INCLINATION":55.1252,"RA_OF_ASC_NODE":100.8034,"ARG_OF_PERICENTER":296.6342,"MEAN_ANOMALY":246.142,"EPHEMERIS_TYPE":0,"CLASSIFICATION_TYPE":"U","NORAD_CAT_ID":59598,"ELEMENT_SET_NO":999,"REV_AT_EPOCH":1348,"BSTAR":0,"MEAN_MOTION_DOT":-3.8e-7,"MEAN_MOTION_DDOT":0}},{"id":"59600","name":"GSAT0227 (GALILEO 30)","constellationId":"galileo","omm":{"OBJECT_NAME":"GSAT0227 (GALILEO 30)","OBJECT_ID":"2024-079C","EPOCH":"2026-06-28T03:33:05.970528","MEAN_MOTION":1.70473976,"ECCENTRICITY":0.00026488,"INCLINATION":55.1211,"RA_OF_ASC_NODE":100.7723,"ARG_OF_PERICENTER":63.8274,"MEAN_ANOMALY":296.1782,"EPHEMERIS_TYPE":0,"CLASSIFICATION_TYPE":"U","NORAD_CAT_ID":59600,"ELEMENT_SET_NO":999,"REV_AT_EPOCH":1355,"BSTAR":0,"MEAN_MOTION_DOT":-3.4e-7,"MEAN_MOTION_DDOT":0}}]}